[{"OBJECT_NAME":"GPS BIIF-10","OBJECT_ID":"2015-033A","EPOCH":"2025-03-09T01:12:07.051104","MEAN_MOTION":2.00553277,"ECCENTRICITY":0.0104389,"INCLINATION":54.3637,"RA_OF_ASC_NODE":286.2197,"ARG_OF_PERICENTER":23.7487,"MEAN_ANOMALY":336.7751,"EPHEMERIS_TYPE":0,"CLASSIFICATION_TYPE":"U","NORAD_CAT_ID":40730,"ELEMENT_SET_NO":999,"REV_AT_EPOCH":7066,"BSTAR":0,"MEAN_MOTION_DOT":3.0e-8,"MEAN_MOTION_DDOT":0},{"OBJECT_NAME":"METEOSAT-11 (MSG-4)","OBJECT_ID":"2015-034A","EPOCH":"2025-03-09T20:59:38.794848","MEAN_MOTION":1.00266835,"ECCENTRICITY":8.12e-5,"INCLINATION":2.0394,"RA_OF_ASC_NODE":72.1671,"ARG_OF_PERICENTER":298.7106,"MEAN_ANOMALY":121.1284,"EPHEMERIS_TYPE":0,"CLASSIFICATION_TYPE":"U","NORAD_CAT_ID":40732,"ELEMENT_SET_NO":999,"REV_AT_EPOCH":256,"BSTAR":0,"MEAN_MOTION_DOT":4.5e-7,"MEAN_MOTION_DDOT":0},{"OBJECT_NAME":"GSAT0205 (GALILEO 9)","OBJECT_ID":"2015-045A","EPOCH":"2025-03-09T01:47:59.640576","MEAN_MOTION":1.70473681,"ECCENTRICITY":0.000595,"INCLINATION":55.1076,"RA_OF_ASC_NODE":234.4493,"ARG_OF_PERICENTER":48.5897,"MEAN_ANOMALY":311.4241,"EPHEMERIS_TYPE":0,"CLASSIFICATION_TYPE":"U","NORAD_CAT_ID":40889,"ELEMENT_SET_NO":999,"REV_AT_EPOCH":5908,"BSTAR":0,"MEAN_MOTION_DOT":2.5e-7,"MEAN_MOTION_DDOT":0},{"OBJECT_NAME":"GSAT0206 (GALILEO 10)","OBJECT_ID":"2015-045B","EPOCH":"2025-03-07T12:51:39.110112","MEAN_MOTION":1.70473594,"ECCENTRICITY":0.0003843,"INCLINATION":55.1073,"RA_OF_ASC_NODE":234.4869,"ARG_OF_PERICENTER":51.1409,"MEAN_ANOMALY":308.8604,"EPHEMERIS_TYPE":0,"CLASSIFICATION_TYPE":"U","NORAD_CAT_ID":40890,"ELEMENT_SET_NO":999,"REV_AT_EPOCH":5908,"BSTAR":0,"MEAN_MOTION_DOT":3.9e-7,"MEAN_MOTION_DDOT":0},{"OBJECT_NAME":"GPS BIIF-11","OBJECT_ID":"2015-062A","EPOCH":"2025-03-08T14:35:14.096256","MEAN_MOTION":2.00566633,"ECCENTRICITY":0.0103019,"INCLINATION":56.6227,"RA_OF_ASC_NODE":48.8045,"ARG_OF_PERICENTER":228.5277,"MEAN_ANOMALY":130.5868,"EPHEMERIS_TYPE":0,"CLASSIFICATION_TYPE":"U","NORAD_CAT_ID":41019,"ELEMENT_SET_NO":999,"REV_AT_EPOCH":6849,"BSTAR":0,"MEAN_MOTION_DOT":-3.7e-7,"MEAN_MOTION_DDOT":0},{"OBJECT_NAME":"ELEKTRO-L 2","OBJECT_ID":"2015-074A","EPOCH":"2025-03-09T18:05:36.224736","MEAN_MOTION":1.00272278,"ECCENTRICITY":0.0003231,"INCLINATION":5.5193,"RA_OF_ASC_NODE":76.231,"ARG_OF_PERICENTER":224.1207,"MEAN_ANOMALY":124.1778,"EPHEMERIS_TYPE":0,"CLASSIFICATION_TYPE":"U","NORAD_CAT_ID":41105,"ELEMENT_SET_NO":999,"REV_AT_EPOCH":3384,"BSTAR":0,"MEAN_MOTION_DOT":-1.33e-6,"MEAN_MOTION_DDOT":0},{"OBJECT_NAME":"GSAT0209 (GALILEO 12)","OBJECT_ID":"2015-079A","EPOCH":"2025-03-08T21:04:03.895968","MEAN_MOTION":1.70474678,"ECCENTRICITY":0.0004622,"INCLINATION":55.5525,"RA_OF_ASC_NODE":114.0382,"ARG_OF_PERICENTER":313.5685,"MEAN_ANOMALY":46.4648,"EPHEMERIS_TYPE":0,"CLASSIFICATION_TYPE":"U","NORAD_CAT_ID":41174,"ELEMENT_SET_NO":999,"REV_AT_EPOCH":5684,"BSTAR":0,"MEAN_MOTION_DOT":2.0e-8,"MEAN_MOTION_DDOT":0},{"OBJECT_NAME":"GSAT0208 (GALILEO 11)","OBJECT_ID":"2015-079B","EPOCH":"2025-03-08T12:16:05.684160","MEAN_MOTION":1.70474563,"ECCENTRICITY":0.0003889,"INCLINATION":55.551,"RA_OF_ASC_NODE":114.0456,"ARG_OF_PERICENTER":311.928,"MEAN_ANOMALY":48.1091,"EPHEMERIS_TYPE":0,"CLASSIFICATION_TYPE":"U","NORAD_CAT_ID":41175,"ELEMENT_SET_NO":999,"REV_AT_EPOCH":5725,"BSTAR":0,"MEAN_MOTION_DOT":1.0e-8,"MEAN_MOTION_DDOT":0},{"OBJECT_NAME":"GPS BIIF-12","OBJECT_ID":"2016-007A","EPOCH":"2025-03-09T16:35:15.550080","MEAN_MOTION":2.0057441,"ECCENTRICITY":0.0086872,"INCLINATION":55.2476,"RA_OF_ASC_NODE":107.8978,"ARG_OF_PERICENTER":241.4168,"MEAN_ANOMALY":117.7745,"EPHEMERIS_TYPE":0,"CLASSIFICATION_TYPE":"U","NORAD_CAT_ID":41328,"ELEMENT_SET_NO":999,"REV_AT_EPOCH":6652,"BSTAR":0,"MEAN_MOTION_DOT":9.0e-8,"MEAN_MOTION_DDOT":0},{"OBJECT_NAME":"GSAT0211 (GALILEO 14)","OBJECT_ID":"2016-030A","EPOCH":"2025-03-09T19:23:26.352960","MEAN_MOTION":1.70473727,"ECCENTRICITY":0.0003348,"INCLINATION":55.2557,"RA_OF_ASC_NODE":234.464,"ARG_OF_PERICENTER":25.4886,"MEAN_ANOMALY":334.4871,"EPHEMERIS_TYPE":0,"CLASSIFICATION_TYPE":"U","NORAD_CAT_ID":41549,"ELEMENT_SET_NO":999,"REV_AT_EPOCH":5473,"BSTAR":0,"MEAN_MOTION_DOT":1.9e-7,"MEAN_MOTION_DDOT":0},{"OBJECT_NAME":"GSAT0210 (GALILEO 13)","OBJECT_ID":"2016-030B","EPOCH":"2025-03-07T17:15:57.169152","MEAN_MOTION":1.70473831,"ECCENTRICITY":0.0001245,"INCLINATION":55.2554,"RA_OF_ASC_NODE":234.5197,"ARG_OF_PERICENTER":173.7019,"MEAN_ANOMALY":186.2666,"EPHEMERIS_TYPE":0,"CLASSIFICATION_TYPE":"U","NORAD_CAT_ID":41550,"ELEMENT_SET_NO":999,"REV_AT_EPOCH":5471,"BSTAR":0,"MEAN_MOTION_DOT":3.8e-7,"MEAN_MOTION_DDOT":0},{"OBJECT_NAME":"INSAT-3DR","OBJECT_ID":"2016-054A","EPOCH":"2025-03-09T21:42:38.716992","MEAN_MOTION":1.00271285,"ECCENTRICITY":0.0012644,"INCLINATION":0.0353,"RA_OF_ASC_NODE":102.948,"ARG_OF_PERICENTER":178.3815,"MEAN_ANOMALY":286.1366,"EPHEMERIS_TYPE":0,"CLASSIFICATION_TYPE":"U","NORAD_CAT_ID":41752,"ELEMENT_SET_NO":999,"REV_AT_EPOCH":3114,"BSTAR":0,"MEAN_MOTION_DOT":-9.4e-7,"MEAN_MOTION_DDOT":0},{"OBJECT_NAME":"GSAT0207 (GALILEO 15)","OBJECT_ID":"2016-069A","EPOCH":"2025-03-09T18:11:19.746816","MEAN_MOTION":1.70474552,"ECCENTRICITY":0.000521,"INCLINATION":55.2201,"RA_OF_ASC_NODE":113.9505,"ARG_OF_PERICENTER":299.5451,"MEAN_ANOMALY":60.4785,"EPHEMERIS_TYPE":0,"CLASSIFICATION_TYPE":"U","NORAD_CAT_ID":41859,"ELEMENT_SET_NO":999,"REV_AT_EPOCH":5148,"BSTAR":0,"MEAN_MOTION_DOT":7.0e-8,"MEAN_MOTION_DDOT":0},{"OBJECT_NAME":"GSAT0212 (GALILEO 16)","OBJECT_ID":"2016-069B","EPOCH":"2025-03-09T00:36:22.744800","MEAN_MOTION":1.70474755,"ECCENTRICITY":0.0003469,"INCLINATION":55.2172,"RA_OF_ASC_NODE":113.9668,"ARG_OF_PERICENTER":322.2889,"MEAN_ANOMALY":37.7589,"EPHEMERIS_TYPE":0,"CLASSIFICATION_TYPE":"U","NORAD_CAT_ID":41860,"ELEMENT_SET_NO":999,"REV_AT_EPOCH":5172,"BSTAR":0,"MEAN_MOTION_DOT":3.0e-8,"MEAN_MOTION_DDOT":0},{"OBJECT_NAME":"GSAT0213 (GALILEO 17)","OBJECT_ID":"2016-069C","EPOCH":"2025-03-08T19:21:48.951648","MEAN_MOTION":1.7047501,"ECCENTRICITY":0.0005411,"INCLINATION":55.2194,"RA_OF_ASC_NODE":113.9801,"ARG_OF_PERICENTER":283.6895,"MEAN_ANOMALY":76.3215,"EPHEMERIS_TYPE":0,"CLASSIFICATION_TYPE":"U","NORAD_CAT_ID":41861,"ELEMENT_SET_NO":999,"REV_AT_EPOCH":5158,"BSTAR":0,"MEAN_MOTION_DOT":1.0e-8,"MEAN_MOTION_DDOT":0},{"OBJECT_NAME":"GSAT0214 (GALILEO 18)","OBJECT_ID":"2016-069D","EPOCH":"2025-03-08T22:51:21.731040","MEAN_MOTION":1.70474869,"ECCENTRICITY":0.0004315,"INCLINATION":55.2184,"RA_OF_ASC_NODE":113.9691,"ARG_OF_PERICENTER":284.9925,"MEAN_ANOMALY":75.0315,"EPHEMERIS_TYPE":0,"CLASSIFICATION_TYPE":"U","NORAD_CAT_ID":41862,"ELEMENT_SET_NO":999,"REV_AT_EPOCH":5171,"BSTAR":0,"MEAN_MOTION_DOT":2.0e-8,"MEAN_MOTION_DDOT":0},{"OBJECT_NAME":"GOES 16","OBJECT_ID":"2016-071A","EPOCH":"2025-03-09T21:13:28.471584","MEAN_MOTION":1.00269043,"ECCENTRICITY":0.0001865,"INCLINATION":0.0918,"RA_OF_ASC_NODE":286.4026,"ARG_OF_PERICENTER":71.7707,"MEAN_ANOMALY":52.7234,"EPHEMERIS_TYPE":0,"CLASSIFICATION_TYPE":"U","NORAD_CAT_ID":41866,"ELEMENT_SET_NO":999,"REV_AT_EPOCH":3044,"BSTAR":0,"MEAN_MOTION_DOT":-2.65e-6,"MEAN_MOTION_DDOT":0}]
